SL-3 R/B                
1 13403U 82079B   26034.14307142  .00005313  00000+0  21466-3 0  9997
2 13403  81.1435 233.8575 0024242 283.9652  75.8885 15.24297763372433
SL-14 R/B               
1 13553U 82092B   26034.18785431  .00000608  00000+0  65464-4 0  9992
2 13553  82.5697 173.6599 0021630  58.0969  32.9985 14.86625351323808
SL-3 R/B                
1 13819U 83010B   26034.06255914  .00014505  00000+0  30381-3 0  9993
2 13819  81.1013  44.6635 0017503 162.1384 198.0479 15.45129567352594
SL-3 R/B                
1 14208U 83075B   26034.13854546  .00012788  00000+0  34708-3 0  9999
2 14208  97.6121  37.4379 0021960 359.1256   0.9945 15.37501422324843
COSMOS 1536             
1 14699U 84013A   26034.04262950  .00007582  00000+0  31686-3 0  9996
2 14699  82.5479 142.2690 0015279  48.8912 311.3641 15.23345408267342
SL-14 R/B               
1 14820U 84027B   26034.14864196  .00000489  00000+0  53102-4 0  9995
2 14820  82.5410 277.4143 0019557  88.0108 272.3348 14.85941514242501
SL-8 R/B                
1 15483U 85006B   26034.15498718  .00000277  00000+0  10047-3 0  9998
2 15483  74.0475 324.6934 0019614 248.9403 217.2219 14.37764548149065
SL-12 R/B(2)            
1 15772U 85042D   26033.65215056  .00000113  00000+0  72161-4 0  9990
2 15772  71.1082 161.7505 0035317 183.8907 187.4796 14.21971584109412
SL-14 R/B               
1 15945U 85069B   26034.14387995  .00000516  00000+0  55604-4 0  9998
2 15945  82.5239  57.4256 0017543 310.1352  49.8326 14.86391215167702
SL-16 R/B               
1 16182U 85097B   26033.98350125  .00000203  00000+0  12588-3 0  9995
2 16182  71.0013 213.6162 0009354 300.4991 226.9237 14.16595009 82315
SL-14 R/B               
1 16496U 86006B   26034.13000453  .00000841  00000+0  86606-4 0  9999
2 16496  82.5278 292.2642 0077427  28.3158 332.2233 14.86764419144075
COSMOS 1743             
1 16719U 86034A   26033.49255749  .00033972  00000+0  48710-3 0  9990
2 16719  82.5342 110.6942 0005343  69.2096 290.9730 15.55971238174772
