CCSDS_OMM_VERS = 2.0
CREATION_DATE  = 
ORIGINATOR     = 

OBJECT_NAME    = SL-3 R/B
OBJECT_ID      = 1982-079B
CENTER_NAME    = EARTH
REF_FRAME      = TEME
TIME_SYSTEM    = UTC
MEAN_ELEMENT_THEORY = SGP/SGP4

EPOCH          = 2026-02-03T03:26:01.370688
MEAN_MOTION    = 15.24297763
ECCENTRICITY   = .0024242
INCLINATION    = 81.1435
RA_OF_ASC_NODE = 233.8575
ARG_OF_PERICENTER = 283.9652
MEAN_ANOMALY   = 75.8885

EPHEMERIS_TYPE = 0
CLASSIFICATION_TYPE = U
NORAD_CAT_ID   = 13403
ELEMENT_SET_NO = 999
REV_AT_EPOCH   = 37243
BSTAR          = .21466E-3
MEAN_MOTION_DOT = .5313E-4
MEAN_MOTION_DDOT = 0

CCSDS_OMM_VERS = 2.0
CREATION_DATE  = 
ORIGINATOR     = 

OBJECT_NAME    = SL-14 R/B
OBJECT_ID      = 1982-092B
CENTER_NAME    = EARTH
REF_FRAME      = TEME
TIME_SYSTEM    = UTC
MEAN_ELEMENT_THEORY = SGP/SGP4

EPOCH          = 2026-02-03T04:30:30.612384
MEAN_MOTION    = 14.86625351
ECCENTRICITY   = .002163
INCLINATION    = 82.5697
RA_OF_ASC_NODE = 173.6599
ARG_OF_PERICENTER = 58.0969
MEAN_ANOMALY   = 32.9985

EPHEMERIS_TYPE = 0
CLASSIFICATION_TYPE = U
NORAD_CAT_ID   = 13553
ELEMENT_SET_NO = 999
REV_AT_EPOCH   = 32380
BSTAR          = .65464E-4
MEAN_MOTION_DOT = .608E-5
MEAN_MOTION_DDOT = 0

CCSDS_OMM_VERS = 2.0
CREATION_DATE  = 
ORIGINATOR     = 

OBJECT_NAME    = SL-3 R/B
OBJECT_ID      = 1983-010B
CENTER_NAME    = EARTH
REF_FRAME      = TEME
TIME_SYSTEM    = UTC
MEAN_ELEMENT_THEORY = SGP/SGP4

EPOCH          = 2026-02-03T01:30:05.109696
MEAN_MOTION    = 15.45129567
ECCENTRICITY   = .0017503
INCLINATION    = 81.1013
RA_OF_ASC_NODE = 44.6635
ARG_OF_PERICENTER = 162.1384
MEAN_ANOMALY   = 198.0479

EPHEMERIS_TYPE = 0
CLASSIFICATION_TYPE = U
NORAD_CAT_ID   = 13819
ELEMENT_SET_NO = 999
REV_AT_EPOCH   = 35259
BSTAR          = .30381E-3
MEAN_MOTION_DOT = .14505E-3
MEAN_MOTION_DDOT = 0

CCSDS_OMM_VERS = 2.0
CREATION_DATE  = 
ORIGINATOR     = 

OBJECT_NAME    = SL-3 R/B
OBJECT_ID      = 1983-075B
CENTER_NAME    = EARTH
REF_FRAME      = TEME
TIME_SYSTEM    = UTC
MEAN_ELEMENT_THEORY = SGP/SGP4

EPOCH          = 2026-02-03T03:19:30.327744
MEAN_MOTION    = 15.37501422
ECCENTRICITY   = .002196
INCLINATION    = 97.6121
RA_OF_ASC_NODE = 37.4379
ARG_OF_PERICENTER = 359.1256
MEAN_ANOMALY   = 0.9945

EPHEMERIS_TYPE = 0
CLASSIFICATION_TYPE = U
NORAD_CAT_ID   = 14208
ELEMENT_SET_NO = 999
REV_AT_EPOCH   = 32484
BSTAR          = .34708E-3
MEAN_MOTION_DOT = .12788E-3
MEAN_MOTION_DDOT = 0

CCSDS_OMM_VERS = 2.0
CREATION_DATE  = 
ORIGINATOR     = 

OBJECT_NAME    = COSMOS 1536
OBJECT_ID      = 1984-013A
CENTER_NAME    = EARTH
REF_FRAME      = TEME
TIME_SYSTEM    = UTC
MEAN_ELEMENT_THEORY = SGP/SGP4

EPOCH          = 2026-02-03T01:01:23.188800
MEAN_MOTION    = 15.23345408
ECCENTRICITY   = .0015279
INCLINATION    = 82.5479
RA_OF_ASC_NODE = 142.2690
ARG_OF_PERICENTER = 48.8912
MEAN_ANOMALY   = 311.3641

EPHEMERIS_TYPE = 0
CLASSIFICATION_TYPE = U
NORAD_CAT_ID   = 14699
ELEMENT_SET_NO = 999
REV_AT_EPOCH   = 26734
BSTAR          = .31686E-3
MEAN_MOTION_DOT = .7582E-4
MEAN_MOTION_DDOT = 0

CCSDS_OMM_VERS = 2.0
CREATION_DATE  = 
ORIGINATOR     = 

OBJECT_NAME    = SL-14 R/B
OBJECT_ID      = 1984-027B
CENTER_NAME    = EARTH
REF_FRAME      = TEME
TIME_SYSTEM    = UTC
MEAN_ELEMENT_THEORY = SGP/SGP4

EPOCH          = 2026-02-03T03:34:02.665344
MEAN_MOTION    = 14.85941514
ECCENTRICITY   = .0019557
INCLINATION    = 82.5410
RA_OF_ASC_NODE = 277.4143
ARG_OF_PERICENTER = 88.0108
MEAN_ANOMALY   = 272.3348

EPHEMERIS_TYPE = 0
CLASSIFICATION_TYPE = U
NORAD_CAT_ID   = 14820
ELEMENT_SET_NO = 999
REV_AT_EPOCH   = 24250
BSTAR          = .53102E-4
MEAN_MOTION_DOT = .489E-5
MEAN_MOTION_DDOT = 0

CCSDS_OMM_VERS = 2.0
CREATION_DATE  = 
ORIGINATOR     = 

OBJECT_NAME    = SL-8 R/B
OBJECT_ID      = 1985-006B
CENTER_NAME    = EARTH
REF_FRAME      = TEME
TIME_SYSTEM    = UTC
MEAN_ELEMENT_THEORY = SGP/SGP4

EPOCH          = 2026-02-03T03:43:10.892352
MEAN_MOTION    = 14.37764548
ECCENTRICITY   = .0019614
INCLINATION    = 74.0475
RA_OF_ASC_NODE = 324.6934
ARG_OF_PERICENTER = 248.9403
MEAN_ANOMALY   = 217.2219

EPHEMERIS_TYPE = 0
CLASSIFICATION_TYPE = U
NORAD_CAT_ID   = 15483
ELEMENT_SET_NO = 999
REV_AT_EPOCH   = 14906
BSTAR          = .10047E-3
MEAN_MOTION_DOT = .277E-5
MEAN_MOTION_DDOT = 0

CCSDS_OMM_VERS = 2.0
CREATION_DATE  = 
ORIGINATOR     = 

OBJECT_NAME    = SL-12 R/B(2)
OBJECT_ID      = 1985-042D
CENTER_NAME    = EARTH
REF_FRAME      = TEME
TIME_SYSTEM    = UTC
MEAN_ELEMENT_THEORY = SGP/SGP4

EPOCH          = 2026-02-02T15:39:05.808384
MEAN_MOTION    = 14.21971584
ECCENTRICITY   = .00353173
INCLINATION    = 71.1082
RA_OF_ASC_NODE = 161.7505
ARG_OF_PERICENTER = 183.8907
MEAN_ANOMALY   = 187.4796

EPHEMERIS_TYPE = 0
CLASSIFICATION_TYPE = U
NORAD_CAT_ID   = 15772
ELEMENT_SET_NO = 999
REV_AT_EPOCH   = 10941
BSTAR          = .72161256E-4
MEAN_MOTION_DOT = .113E-5
MEAN_MOTION_DDOT = 0

CCSDS_OMM_VERS = 2.0
CREATION_DATE  = 
ORIGINATOR     = 

OBJECT_NAME    = SL-14 R/B
OBJECT_ID      = 1985-069B
CENTER_NAME    = EARTH
REF_FRAME      = TEME
TIME_SYSTEM    = UTC
MEAN_ELEMENT_THEORY = SGP/SGP4

EPOCH          = 2026-02-03T03:27:11.227680
MEAN_MOTION    = 14.86391215
ECCENTRICITY   = .0017543
INCLINATION    = 82.5239
RA_OF_ASC_NODE = 57.4256
ARG_OF_PERICENTER = 310.1352
MEAN_ANOMALY   = 49.8326

EPHEMERIS_TYPE = 0
CLASSIFICATION_TYPE = U
NORAD_CAT_ID   = 15945
ELEMENT_SET_NO = 999
REV_AT_EPOCH   = 16770
BSTAR          = .55604E-4
MEAN_MOTION_DOT = .516E-5
MEAN_MOTION_DDOT = 0

CCSDS_OMM_VERS = 2.0
CREATION_DATE  = 
ORIGINATOR     = 

OBJECT_NAME    = SL-16 R/B
OBJECT_ID      = 1985-097B
CENTER_NAME    = EARTH
REF_FRAME      = TEME
TIME_SYSTEM    = UTC
MEAN_ELEMENT_THEORY = SGP/SGP4

EPOCH          = 2026-02-02T23:36:14.508000
MEAN_MOTION    = 14.16595009
ECCENTRICITY   = .0009354
INCLINATION    = 71.0013
RA_OF_ASC_NODE = 213.6162
ARG_OF_PERICENTER = 300.4991
MEAN_ANOMALY   = 226.9237

EPHEMERIS_TYPE = 0
CLASSIFICATION_TYPE = U
NORAD_CAT_ID   = 16182
ELEMENT_SET_NO = 999
REV_AT_EPOCH   = 8231
BSTAR          = .12588E-3
MEAN_MOTION_DOT = .203E-5
MEAN_MOTION_DDOT = 0

CCSDS_OMM_VERS = 2.0
CREATION_DATE  = 
ORIGINATOR     = 

OBJECT_NAME    = SL-14 R/B
OBJECT_ID      = 1986-006B
CENTER_NAME    = EARTH
REF_FRAME      = TEME
TIME_SYSTEM    = UTC
MEAN_ELEMENT_THEORY = SGP/SGP4

EPOCH          = 2026-02-03T03:07:12.391392
MEAN_MOTION    = 14.86764419
ECCENTRICITY   = .0077427
INCLINATION    = 82.5278
RA_OF_ASC_NODE = 292.2642
ARG_OF_PERICENTER = 28.3158
MEAN_ANOMALY   = 332.2233

EPHEMERIS_TYPE = 0
CLASSIFICATION_TYPE = U
NORAD_CAT_ID   = 16496
ELEMENT_SET_NO = 999
REV_AT_EPOCH   = 14407
BSTAR          = .86606E-4
MEAN_MOTION_DOT = .841E-5
MEAN_MOTION_DDOT = 0

CCSDS_OMM_VERS = 2.0
CREATION_DATE  = 
ORIGINATOR     = 

OBJECT_NAME    = COSMOS 1743
OBJECT_ID      = 1986-034A
CENTER_NAME    = EARTH
REF_FRAME      = TEME
TIME_SYSTEM    = UTC
MEAN_ELEMENT_THEORY = SGP/SGP4

EPOCH          = 2026-02-02T11:49:16.967136
MEAN_MOTION    = 15.55971238
ECCENTRICITY   = .00053435
INCLINATION    = 82.5342
RA_OF_ASC_NODE = 110.6942
ARG_OF_PERICENTER = 69.2096
MEAN_ANOMALY   = 290.9730

EPHEMERIS_TYPE = 0
CLASSIFICATION_TYPE = U
NORAD_CAT_ID   = 16719
ELEMENT_SET_NO = 999
REV_AT_EPOCH   = 17477
BSTAR          = .48710285E-3
MEAN_MOTION_DOT = .33972E-3
MEAN_MOTION_DDOT = 0

